{"type": "FeatureCollection", "features": [{"type": "Feature", "properties": {"norad_id": 26766, "name": "INTELSAT 10 (IS-10)", "group": "intelsat", "lat": 8.504017887651916, "lon": 140.38101412741418, "alt_km": 36150.945399364195, "timestamp": "2025-12-16T19:34:23.932557+00:00", "meta": {"OBJECT_NAME": "INTELSAT 10 (IS-10)", "OBJECT_ID": "2001-019A", "EPOCH": "2025-12-15T13:59:19.764960", "MEAN_MOTION": 0.99077622, "ECCENTRICITY": 0.00076924, "INCLINATION": 8.6363, "RA_OF_ASC_NODE": 61.1289, "ARG_OF_PERICENTER": 227.1002, "MEAN_ANOMALY": 132.6392, "EPHEMERIS_TYPE": 0, "CLASSIFICATION_TYPE": "U", "NORAD_CAT_ID": 26766, "ELEMENT_SET_NO": 999, "REV_AT_EPOCH": 4375, "BSTAR": 0, "MEAN_MOTION_DOT": -2.35e-06, "MEAN_MOTION_DDOT": 0}, "tle": {"line1": "1 26766U 01019A   25349.58286765 -.00000235  00000+0  00000+0 0  9997", "line2": "2 26766   8.6363  61.1289 0007692 227.1002 132.6392  0.99077622 43757"}}, "geometry": {"type": "Point", "coordinates": [140.38101412741418, 8.504017887651916]}}, {"type": "Feature", "properties": {"norad_id": 26900, "name": "INTELSAT 902 (IS-902)", "group": "intelsat", "lat": -5.4780843167924145, "lon": -30.83328589067396, "alt_km": 35779.302351087055, "timestamp": "2025-12-16T19:34:23.932582+00:00", "meta": {"OBJECT_NAME": "INTELSAT 902 (IS-902)", "OBJECT_ID": "2001-039A", "EPOCH": "2025-12-15T13:09:02.081664", "MEAN_MOTION": 1.0027087, "ECCENTRICITY": 0.00045028, "INCLINATION": 5.6536, "RA_OF_ASC_NODE": 74.0372, "ARG_OF_PERICENTER": 189.6359, "MEAN_ANOMALY": 327.9329, "EPHEMERIS_TYPE": 0, "CLASSIFICATION_TYPE": "U", "NORAD_CAT_ID": 26900, "ELEMENT_SET_NO": 999, "REV_AT_EPOCH": 8885, "BSTAR": 0, "MEAN_MOTION_DOT": -2.65e-06, "MEAN_MOTION_DDOT": 0}, "tle": {"line1": "1 26900U 01039A   25349.54794076 -.00000265  00000+0  00000+0 0  9997", "line2": "2 26900   5.6536  74.0372 0004502 189.6359 327.9329  1.00270870 88858"}}, "geometry": {"type": "Point", "coordinates": [-30.83328589067396, -5.4780843167924145]}}, {"type": "Feature", "properties": {"norad_id": 27380, "name": "INTELSAT 904 (IS-904)", "group": "intelsat", "lat": -6.426083417461531, "lon": -12.148034955684755, "alt_km": 35781.62001724701, "timestamp": "2025-12-16T19:34:23.932598+00:00", "meta": {"OBJECT_NAME": "INTELSAT 904 (IS-904)", "OBJECT_ID": "2002-007A", "EPOCH": "2025-12-15T11:31:33.915360", "MEAN_MOTION": 1.00272271, "ECCENTRICITY": 0.00015888, "INCLINATION": 6.4613, "RA_OF_ASC_NODE": 71.4012, "ARG_OF_PERICENTER": 238.6774, "MEAN_ANOMALY": 275.6976, "EPHEMERIS_TYPE": 0, "CLASSIFICATION_TYPE": "U", "NORAD_CAT_ID": 27380, "ELEMENT_SET_NO": 999, "REV_AT_EPOCH": 4992, "BSTAR": 0, "MEAN_MOTION_DOT": -2.08e-06, "MEAN_MOTION_DDOT": 0}, "tle": {"line1": "1 27380U 02007A   25349.48025365 -.00000208  00000+0  00000+0 0  9994", "line2": "2 27380   6.4613  71.4012 0001588 238.6774 275.6976  1.00272271 49924"}}, "geometry": {"type": "Point", "coordinates": [-12.148034955684755, -6.426083417461531]}}, {"type": "Feature", "properties": {"norad_id": 27426, "name": "DIRECTV 5 (TEMPO 1)", "group": "intelsat", "lat": -0.908323901739533, "lon": -90.86266010984441, "alt_km": 35771.83308151837, "timestamp": "2025-12-16T19:34:23.932630+00:00", "meta": {"OBJECT_NAME": "DIRECTV 5 (TEMPO 1)", "OBJECT_ID": "2002-023A", "EPOCH": "2025-12-15T21:25:27.545952", "MEAN_MOTION": 1.00272518, "ECCENTRICITY": 0.00034034, "INCLINATION": 4.41, "RA_OF_ASC_NODE": 77.6166, "ARG_OF_PERICENTER": 202.4031, "MEAN_ANOMALY": 16.0158, "EPHEMERIS_TYPE": 0, "CLASSIFICATION_TYPE": "U", "NORAD_CAT_ID": 27426, "ELEMENT_SET_NO": 999, "REV_AT_EPOCH": 8628, "BSTAR": 0, "MEAN_MOTION_DOT": -3.7e-07, "MEAN_MOTION_DDOT": 0}, "tle": {"line1": "1 27426U 02023A   25349.89267993 -.00000037  00000+0  00000+0 0  9993", "line2": "2 27426   4.4100  77.6166 0003403 202.4031  16.0158  1.00272518 86288"}}, "geometry": {"type": "Point", "coordinates": [-90.86266010984441, -0.908323901739533]}}, {"type": "Feature", "properties": {"norad_id": 27438, "name": "INTELSAT 905 (IS-905)", "group": "intelsat", "lat": 1.0561431192804729, "lon": -117.81982281256487, "alt_km": 35775.485335852965, "timestamp": "2025-12-16T19:34:23.932644+00:00", "meta": {"OBJECT_NAME": "INTELSAT 905 (IS-905)", "OBJECT_ID": "2002-027A", "EPOCH": "2025-12-14T04:33:38.635200", "MEAN_MOTION": 1.00274201, "ECCENTRICITY": 0.00026501, "INCLINATION": 6.2894, "RA_OF_ASC_NODE": 72.0398, "ARG_OF_PERICENTER": 202.1249, "MEAN_ANOMALY": 100.1717, "EPHEMERIS_TYPE": 0, "CLASSIFICATION_TYPE": "U", "NORAD_CAT_ID": 27438, "ELEMENT_SET_NO": 999, "REV_AT_EPOCH": 4950, "BSTAR": 0, "MEAN_MOTION_DOT": 1.08e-06, "MEAN_MOTION_DDOT": 0}, "tle": {"line1": "1 27438U 02027A   25348.19003050  .00000108  00000+0  00000+0 0  9992", "line2": "2 27438   6.2894  72.0398 0002650 202.1249 100.1717  1.00274201 49509"}}, "geometry": {"type": "Point", "coordinates": [-117.81982281256487, 1.0561431192804729]}}, {"type": "Feature", "properties": {"norad_id": 27445, "name": "GALAXY 3C (G-3C)", "group": "intelsat", "lat": -1.352131127577807, "lon": -75.59337965683673, "alt_km": 35788.73458924641, "timestamp": "2025-12-16T19:34:23.932657+00:00", "meta": {"OBJECT_NAME": "GALAXY 3C (G-3C)", "OBJECT_ID": "2002-030A", "EPOCH": "2025-12-15T21:29:49.627392", "MEAN_MOTION": 1.0027188, "ECCENTRICITY": 0.00010916, "INCLINATION": 3.2718, "RA_OF_ASC_NODE": 80.4743, "ARG_OF_PERICENTER": 81.448, "MEAN_ANOMALY": 150.465, "EPHEMERIS_TYPE": 0, "CLASSIFICATION_TYPE": "U", "NORAD_CAT_ID": 27445, "ELEMENT_SET_NO": 999, "REV_AT_EPOCH": 4465, "BSTAR": 0, "MEAN_MOTION_DOT": -1.32e-06, "MEAN_MOTION_DDOT": 0}, "tle": {"line1": "1 27445U 02030A   25349.89571328 -.00000132  00000+0  00000+0 0  9998", "line2": "2 27445   3.2718  80.4743 0001091  81.4480 150.4650  1.00271880 44654"}}, "geometry": {"type": "Point", "coordinates": [-75.59337965683673, -1.352131127577807]}}, {"type": "Feature", "properties": {"norad_id": 27513, "name": "INTELSAT 906 (IS-906)", "group": "intelsat", "lat": 0.7893648145447323, "lon": 83.39271156958846, "alt_km": 35812.13961906275, "timestamp": "2025-12-16T19:34:23.932675+00:00", "meta": {"OBJECT_NAME": "INTELSAT 906 (IS-906)", "OBJECT_ID": "2002-041A", "EPOCH": "2025-12-15T20:32:25.123776", "MEAN_MOTION": 1.00272067, "ECCENTRICITY": 0.00062491, "INCLINATION": 5.3371, "RA_OF_ASC_NODE": 75.1943, "ARG_OF_PERICENTER": 195.1621, "MEAN_ANOMALY": 186.628, "EPHEMERIS_TYPE": 0, "CLASSIFICATION_TYPE": "U", "NORAD_CAT_ID": 27513, "ELEMENT_SET_NO": 999, "REV_AT_EPOCH": 8519, "BSTAR": 0, "MEAN_MOTION_DOT": 3.2e-07, "MEAN_MOTION_DDOT": 0}, "tle": {"line1": "1 27513U 02041A   25349.85584634  .00000032  00000+0  00000+0 0  9994", "line2": "2 27513   5.3371  75.1943 0006249 195.1621 186.6280  1.00272067 85193"}}, "geometry": {"type": "Point", "coordinates": [83.39271156958846, 0.7893648145447323]}}, {"type": "Feature", "properties": {"norad_id": 27954, "name": "GALAXY 13 (HORIZONS-1)", "group": "intelsat", "lat": 0.5474983134221056, "lon": -130.714354849766, "alt_km": 35777.985247373246, "timestamp": "2025-12-16T19:34:23.932700+00:00", "meta": {"OBJECT_NAME": "GALAXY 13 (HORIZONS-1)", "OBJECT_ID": "2003-044A", "EPOCH": "2025-12-15T12:40:27.318144", "MEAN_MOTION": 1.00272788, "ECCENTRICITY": 0.00020747, "INCLINATION": 0.9431, "RA_OF_ASC_NODE": 86.4332, "ARG_OF_PERICENTER": 173.1454, "MEAN_ANOMALY": 224.9644, "EPHEMERIS_TYPE": 0, "CLASSIFICATION_TYPE": "U", "NORAD_CAT_ID": 27954, "ELEMENT_SET_NO": 999, "REV_AT_EPOCH": 4473, "BSTAR": 0, "MEAN_MOTION_DOT": 1.54e-06, "MEAN_MOTION_DDOT": 0}, "tle": {"line1": "1 27954U 03044A   25349.52809396  .00000154  00000+0  00000+0 0  9991", "line2": "2 27954   0.9431  86.4332 0002074 173.1454 224.9644  1.00272788 44734"}}, "geometry": {"type": "Point", "coordinates": [-130.714354849766, 0.5474983134221056]}}, {"type": "Feature", "properties": {"norad_id": 28358, "name": "INTELSAT 10-02", "group": "intelsat", "lat": -0.003499968359591804, "lon": 18.341521998853842, "alt_km": 35784.68103009584, "timestamp": "2025-12-16T19:34:23.932714+00:00", "meta": {"OBJECT_NAME": "INTELSAT 10-02", "OBJECT_ID": "2004-022A", "EPOCH": "2025-12-15T21:56:39.556608", "MEAN_MOTION": 1.00272589, "ECCENTRICITY": 0.00010006, "INCLINATION": 0.0248, "RA_OF_ASC_NODE": 69.9541, "ARG_OF_PERICENTER": 234.3244, "MEAN_ANOMALY": 108.7377, "EPHEMERIS_TYPE": 0, "CLASSIFICATION_TYPE": "U", "NORAD_CAT_ID": 28358, "ELEMENT_SET_NO": 999, "REV_AT_EPOCH": 7871, "BSTAR": 0, "MEAN_MOTION_DOT": 1.2e-07, "MEAN_MOTION_DDOT": 0}, "tle": {"line1": "1 28358U 04022A   25349.91434672  .00000012  00000+0  00000+0 0  9994", "line2": "2 28358   0.0248  69.9541 0001000 234.3244 108.7377  1.00272589 78719"}}, "geometry": {"type": "Point", "coordinates": [18.341521998853842, -0.003499968359591804]}}, {"type": "Feature", "properties": {"norad_id": 28626, "name": "XM-3 (RHYTHM)", "group": "intelsat", "lat": 0.11695615675101674, "lon": 114.25683454807873, "alt_km": 36163.729216444066, "timestamp": "2025-12-16T19:34:23.932727+00:00", "meta": {"OBJECT_NAME": "XM-3 (RHYTHM)", "OBJECT_ID": "2005-008A", "EPOCH": "2025-12-15T18:59:51.902880", "MEAN_MOTION": 0.98951196, "ECCENTRICITY": 0.00017159, "INCLINATION": 0.1825, "RA_OF_ASC_NODE": 81.782, "ARG_OF_PERICENTER": 275.9891, "MEAN_ANOMALY": 111.7066, "EPHEMERIS_TYPE": 0, "CLASSIFICATION_TYPE": "U", "NORAD_CAT_ID": 28626, "ELEMENT_SET_NO": 999, "REV_AT_EPOCH": 4078, "BSTAR": 0, "MEAN_MOTION_DOT": -4.6e-07, "MEAN_MOTION_DDOT": 0}, "tle": {"line1": "1 28626U 05008A   25349.79157295 -.00000046  00000+0  00000+0 0  9994", "line2": "2 28626   0.1825  81.7820 0001715 275.9891 111.7066  0.98951196 40782"}}, "geometry": {"type": "Point", "coordinates": [114.25683454807873, 0.11695615675101674]}}]}